[{"OBJECT_NAME":"JILIN-1 07","OBJECT_ID":"2018-008E","EPOCH":"2026-03-09T22:24:26.445888","MEAN_MOTION":15.32987507,"ECCENTRICITY":0.00101791,"INCLINATION":97.1876,"RA_OF_ASC_NODE":91.5817,"ARG_OF_PERICENTER":62.7832,"MEAN_ANOMALY":297.4447,"EPHEMERIS_TYPE":0,"CLASSIFICATION_TYPE":"U","NORAD_CAT_ID":43159,"ELEMENT_SET_NO":999,"REV_AT_EPOCH":44978,"BSTAR":0.00036439521,"MEAN_MOTION_DOT":0.00011559,"MEAN_MOTION_DDOT":0},{"OBJECT_NAME":"STARLINK-33592","OBJECT_ID":"2025-015H","EPOCH":"2026-03-09T23:26:53.343456","MEAN_MOTION":15.30219635,"ECCENTRICITY":9.632e-5,"INCLINATION":53.159,"RA_OF_ASC_NODE":321.2288,"ARG_OF_PERICENTER":127.7763,"MEAN_ANOMALY":232.3325,"EPHEMERIS_TYPE":0,"CLASSIFICATION_TYPE":"U","NORAD_CAT_ID":62765,"ELEMENT_SET_NO":999,"REV_AT_EPOCH":6439,"BSTAR":0.0011401985,"MEAN_MOTION_DOT":0.00033583,"MEAN_MOTION_DDOT":0}]
